{"type":"FeatureCollection","features":[{"type":"Feature","properties":{},"geometry":{"type":"Polygon","coordinates":[[[23.97402,49.822834],[23.975231,49.823389],[23.975188,49.823432],[23.975172,49.823423],[23.975123,49.82346],[23.973943,49.822915],[23.97399,49.822877],[23.97398,49.822868],[23.97402,49.822834]]]}},{"type":"Feature","properties":{},"geometry":{"type":"Polygon","coordinates":[[[23.975307,49.823456],[23.975343,49.823419],[23.975478,49.823472],[23.975438,49.823509],[23.975307,49.823456]]]}},{"type":"Feature","properties":{},"geometry":{"type":"Polygon","coordinates":[[[23.975488,49.823572],[23.975532,49.823536],[23.976736,49.824086],[23.976699,49.824122],[23.976683,49.824119],[23.976637,49.824158],[23.975468,49.823614],[23.9755,49.823579],[23.975488,49.823572]]]}},{"type":"Feature","properties":{},"geometry":{"type":"Polygon","coordinates":[[[23.976778,49.824138],[23.976798,49.82412],[23.976829,49.824135],[23.976811,49.824152],[23.976778,49.824138]]]}},{"type":"Feature","properties":{},"geometry":{"type":"Polygon","coordinates":[[[23.976736,49.824431],[23.976799,49.824368],[23.97688,49.824404],[23.976814,49.824468],[23.976736,49.824431]]]}},{"type":"Feature","properties":{},"geometry":{"type":"Polygon","coordinates":[[[23.976511,49.824258],[23.97666,49.824322],[23.976099,49.824856],[23.975955,49.824792],[23.976511,49.824258]]]}},{"type":"Feature","properties":{},"geometry":{"type":"Polygon","coordinates":[[[23.975864,49.825063],[23.975919,49.825011],[23.975974,49.825034],[23.97592,49.825087],[23.975864,49.825063]]]}},{"type":"Feature","properties":{},"geometry":{"type":"Polygon","coordinates":[[[23.97546,49.825232],[23.975439,49.824614],[23.975613,49.824611],[23.975647,49.82523],[23.97546,49.825232]]]}},{"type":"Feature","properties":{},"geometry":{"type":"Polygon","coordinates":[[[23.974861,49.824967],[23.974834,49.824359],[23.975008,49.824349],[23.975049,49.824961],[23.974861,49.824967]]]}},{"type":"Feature","properties":{},"geometry":{"type":"Polygon","coordinates":[[[23.974235,49.824063],[23.974423,49.824056],[23.974466,49.82471],[23.974291,49.824718],[23.974288,49.824724],[23.974235,49.824063]]]}},{"type":"Feature","properties":{},"geometry":{"type":"Polygon","coordinates":[[[23.974776,49.824054],[23.975216,49.823675],[23.975355,49.823739],[23.974917,49.824118],[23.974776,49.824054]]]}},{"type":"Feature","properties":{},"geometry":{"type":"Polygon","coordinates":[[[23.975404,49.824162],[23.975468,49.824181],[23.975433,49.824227],[23.975505,49.824246],[23.975543,49.824199],[23.975633,49.824228],[23.975523,49.824373],[23.975394,49.824335],[23.975421,49.82429],[23.975376,49.824275],[23.975401,49.824234],[23.975358,49.82422],[23.975404,49.824162]]]}},{"type":"Feature","properties":{},"geometry":{"type":"Polygon","coordinates":[[[23.975253,49.824289],[23.975285,49.824253],[23.97536,49.824277],[23.975335,49.824316],[23.975253,49.824289]]]}},{"type":"Feature","properties":{},"geometry":{"type":"Polygon","coordinates":[[[23.974794,49.823619],[23.97486,49.823565],[23.974932,49.823595],[23.974866,49.823656],[23.974794,49.823619]]]}},{"type":"Feature","properties":{},"geometry":{"type":"Polygon","coordinates":[[[23.97447,49.823559],[23.974542,49.823488],[23.974641,49.823527],[23.974614,49.823554],[23.974644,49.823567],[23.974603,49.823611],[23.97447,49.823559]]]}},{"type":"Feature","properties":{},"geometry":{"type":"Polygon","coordinates":[[[23.974368,49.823581],[23.974444,49.823608],[23.97441,49.82365],[23.97433,49.823621],[23.974368,49.823581]]]}},{"type":"Feature","properties":{},"geometry":{"type":"Polygon","coordinates":[[[23.974299,49.823659],[23.974324,49.823635],[23.974462,49.823687],[23.974441,49.82371],[23.974299,49.823659]]]}},{"type":"Feature","properties":{},"geometry":{"type":"Polygon","coordinates":[[[23.974457,49.823679],[23.974483,49.823657],[23.974543,49.823682],[23.97452,49.823705],[23.974457,49.823679]]]}},{"type":"Feature","properties":{},"geometry":{"type":"Polygon","coordinates":[[[23.974491,49.823731],[23.974518,49.823706],[23.974634,49.823756],[23.974564,49.823827],[23.974524,49.823809],[23.974563,49.823765],[23.974491,49.823731]]]}},{"type":"Feature","properties":{},"geometry":{"type":"Polygon","coordinates":[[[23.974273,49.823765],[23.97434,49.823696],[23.974459,49.823742],[23.974395,49.823811],[23.974273,49.823765]]]}},{"type":"Feature","properties":{},"geometry":{"type":"Polygon","coordinates":[[[23.974067,49.82397],[23.974146,49.823899],[23.974144,49.823899],[23.974144,49.823897],[23.974255,49.823944],[23.974179,49.824017],[23.974067,49.82397]]]}},{"type":"Feature","properties":{},"geometry":{"type":"Polygon","coordinates":[[[23.973866,49.824159],[23.973908,49.824119],[23.973975,49.824144],[23.974,49.824119],[23.974085,49.824155],[23.974056,49.824188],[23.974089,49.8242],[23.974011,49.824283],[23.973951,49.824262],[23.973964,49.824247],[23.973933,49.824235],[23.973941,49.824224],[23.973864,49.824189],[23.973883,49.824168],[23.973866,49.824159]]]}},{"type":"Feature","properties":{},"geometry":{"type":"Polygon","coordinates":[[[23.973749,49.824303],[23.973813,49.824228],[23.973934,49.824267],[23.973904,49.824298],[23.973944,49.824311],[23.97392,49.824335],[23.973888,49.824324],[23.973869,49.824344],[23.973749,49.824303]]]}},{"type":"Feature","properties":{},"geometry":{"type":"Polygon","coordinates":[[[23.973836,49.824385],[23.973871,49.82435],[23.973954,49.824379],[23.973922,49.824416],[23.973836,49.824385]]]}},{"type":"Feature","properties":{},"geometry":{"type":"Polygon","coordinates":[[[23.973627,49.824437],[23.9737,49.824356],[23.97381,49.824392],[23.973738,49.824476],[23.973627,49.824437]]]}},{"type":"Feature","properties":{},"geometry":{"type":"Polygon","coordinates":[[[23.973782,49.824501],[23.97383,49.824451],[23.973875,49.824469],[23.973827,49.824519],[23.973782,49.824501]]]}},{"type":"Feature","properties":{},"geometry":{"type":"Polygon","coordinates":[[[23.973384,49.824684],[23.973459,49.824609],[23.973568,49.824649],[23.97355,49.824668],[23.973579,49.82468],[23.973537,49.824718],[23.973516,49.824711],[23.973494,49.824727],[23.973384,49.824684]]]}},{"type":"Feature","properties":{},"geometry":{"type":"Polygon","coordinates":[[[23.973522,49.824753],[23.973549,49.824719],[23.973576,49.824726],[23.973549,49.824763],[23.973522,49.824753]]]}},{"type":"Feature","properties":{},"geometry":{"type":"Polygon","coordinates":[[[23.973249,49.824817],[23.973318,49.824745],[23.973452,49.824791],[23.973433,49.824814],[23.973456,49.824823],[23.973431,49.824856],[23.973491,49.824881],[23.973463,49.824912],[23.973315,49.824859],[23.973327,49.824843],[23.973249,49.824817]]]}},{"type":"Feature","properties":{},"geometry":{"type":"Polygon","coordinates":[[[23.973128,49.824939],[23.97319,49.824873],[23.973327,49.824924],[23.973264,49.824991],[23.973128,49.824939]]]}},{"type":"Feature","properties":{},"geometry":{"type":"Polygon","coordinates":[[[23.973301,49.825025],[23.973347,49.824981],[23.973373,49.824991],[23.973388,49.824978],[23.97344,49.824998],[23.973386,49.825058],[23.973301,49.825025]]]}},{"type":"Feature","properties":{},"geometry":{"type":"Polygon","coordinates":[[[23.973538,49.824853],[23.973638,49.824754],[23.974271,49.825011],[23.974173,49.825106],[23.973538,49.824853]]]}},{"type":"Feature","properties":{},"geometry":{"type":"Polygon","coordinates":[[[23.97315,49.822509],[23.973211,49.822531],[23.973235,49.822507],[23.973336,49.822538],[23.973318,49.822563],[23.973595,49.822669],[23.973503,49.822772],[23.973517,49.82278],[23.973469,49.822831],[23.973378,49.822798],[23.973389,49.822786],[23.97302,49.822654],[23.97315,49.822509]]]}},{"type":"Feature","properties":{},"geometry":{"type":"Polygon","coordinates":[[[23.972714,49.822876],[23.972749,49.822843],[23.972787,49.822857],[23.972932,49.822723],[23.973005,49.822753],[23.972992,49.822772],[23.973021,49.822784],[23.972869,49.822935],[23.972714,49.822876]]]}},{"type":"Feature","properties":{},"geometry":{"type":"Polygon","coordinates":[[[23.973021,49.822886],[23.97311,49.822789],[23.9733,49.822852],[23.973277,49.82288],[23.973202,49.822856],[23.973174,49.822885],[23.973146,49.822874],[23.973121,49.822901],[23.9731,49.822894],[23.973086,49.822908],[23.973021,49.822886]]]}},{"type":"Feature","properties":{},"geometry":{"type":"Polygon","coordinates":[[[23.972895,49.823283],[23.973299,49.822884],[23.973452,49.822943],[23.973053,49.823346],[23.972895,49.823283]]]}},{"type":"Feature","properties":{},"geometry":{"type":"Polygon","coordinates":[[[23.972804,49.823029],[23.972841,49.823002],[23.972913,49.823036],[23.972875,49.823061],[23.972804,49.823029]]]}},{"type":"Feature","properties":{},"geometry":{"type":"Polygon","coordinates":[[[23.972682,49.823188],[23.972731,49.823133],[23.972862,49.823178],[23.972822,49.823225],[23.972782,49.823206],[23.972771,49.823218],[23.972682,49.823188]]]}},{"type":"Feature","properties":{},"geometry":{"type":"Polygon","coordinates":[[[23.972493,49.823142],[23.97266,49.822965],[23.97274,49.822996],[23.972719,49.823016],[23.972766,49.823033],[23.972642,49.823161],[23.972598,49.823149],[23.97257,49.823176],[23.972493,49.823142]]]}},{"type":"Feature","properties":{},"geometry":{"type":"Polygon","coordinates":[[[23.972252,49.823386],[23.972335,49.823301],[23.972418,49.82333],[23.972396,49.823356],[23.972421,49.823365],[23.972394,49.823398],[23.972366,49.823389],[23.972344,49.823417],[23.972252,49.823386]]]}},{"type":"Feature","properties":{},"geometry":{"type":"Polygon","coordinates":[[[23.972224,49.823401],[23.972291,49.823429],[23.972303,49.82342],[23.972398,49.823454],[23.972372,49.82348],[23.972386,49.823499],[23.972352,49.823536],[23.972319,49.823534],[23.972287,49.823569],[23.972115,49.8235],[23.972192,49.823415],[23.972224,49.823401]]]}},{"type":"Feature","properties":{},"geometry":{"type":"Polygon","coordinates":[[[23.972038,49.823589],[23.972103,49.823524],[23.9723,49.823602],[23.972289,49.823611],[23.972413,49.823656],[23.972371,49.823703],[23.972242,49.823663],[23.972261,49.823643],[23.972209,49.823627],[23.972166,49.82368],[23.972127,49.823663],[23.972115,49.823681],[23.972058,49.823663],[23.972081,49.823643],[23.972032,49.823628],[23.972056,49.823597],[23.972038,49.823589]]]}},{"type":"Feature","properties":{},"geometry":{"type":"Polygon","coordinates":[[[23.972326,49.823608],[23.972362,49.82357],[23.97247,49.82361],[23.972433,49.823643],[23.972326,49.823608]]]}},{"type":"Feature","properties":{},"geometry":{"type":"Polygon","coordinates":[[[23.972257,49.823784],[23.97228,49.823757],[23.972341,49.823777],[23.972315,49.823806],[23.972257,49.823784]]]}},{"type":"Feature","properties":{},"geometry":{"type":"Polygon","coordinates":[[[23.97265,49.823442],[23.972818,49.823436],[23.972868,49.82405],[23.972691,49.824062],[23.97265,49.823442]]]}},{"type":"Feature","properties":{},"geometry":{"type":"Polygon","coordinates":[[[23.973219,49.823707],[23.9734,49.823702],[23.973429,49.824291],[23.973263,49.824298],[23.973219,49.823707]]]}},{"type":"Feature","properties":{},"geometry":{"type":"Polygon","coordinates":[[[23.97169,49.82402],[23.971738,49.82397],[23.97183,49.823999],[23.971785,49.824051],[23.97169,49.82402]]]}},{"type":"Feature","properties":{},"geometry":{"type":"Polygon","coordinates":[[[23.972066,49.824162],[23.972087,49.824137],[23.972161,49.824155],[23.972137,49.824183],[23.972066,49.824162]]]}},{"type":"Feature","properties":{},"geometry":{"type":"Polygon","coordinates":[[[23.97174,49.824359],[23.971837,49.824259],[23.97246,49.824512],[23.97237,49.824609],[23.972242,49.824557],[23.972227,49.82458],[23.972246,49.824591],[23.972192,49.824646],[23.972165,49.824637],[23.972137,49.824667],[23.97228,49.824724],[23.97218,49.824824],[23.971901,49.824705],[23.971994,49.824612],[23.972099,49.824651],[23.972197,49.82455],[23.97174,49.824359]]]}},{"type":"Feature","properties":{},"geometry":{"type":"Polygon","coordinates":[[[23.972638,49.824969],[23.972674,49.824943],[23.972661,49.824935],[23.972685,49.824909],[23.972695,49.824913],[23.97274,49.824871],[23.97272,49.824862],[23.972877,49.824704],[23.972886,49.824707],[23.97293,49.824669],[23.972907,49.82466],[23.973015,49.824565],[23.972991,49.824558],[23.973029,49.82451],[23.973078,49.824532],[23.973093,49.824514],[23.973182,49.82455],[23.973169,49.824574],[23.973222,49.824588],[23.973184,49.824617],[23.973169,49.82464],[23.973144,49.824645],[23.973123,49.824669],[23.973095,49.82466],[23.973068,49.824688],[23.973084,49.824696],[23.973084,49.824707],[23.97307,49.82472],[23.973089,49.824731],[23.97307,49.824756],[23.973042,49.824748],[23.972949,49.824836],[23.972966,49.824843],[23.972949,49.824875],[23.972924,49.824865],[23.972852,49.824939],[23.972869,49.824951],[23.972843,49.824978],[23.972824,49.824968],[23.972784,49.825024],[23.972638,49.824969]]]}},{"type":"Feature","properties":{},"geometry":{"type":"Polygon","coordinates":[[[23.974407,49.825192],[23.974489,49.82511],[23.97527,49.825438],[23.975185,49.825516],[23.974407,49.825192]]]}},{"type":"Feature","properties":{},"geometry":{"type":"Polygon","coordinates":[[[23.97533,49.825523],[23.975363,49.825493],[23.975438,49.825518],[23.975402,49.825553],[23.97533,49.825523]]]}},{"type":"Feature","properties":{},"geometry":{"type":"Polygon","coordinates":[[[23.975699,49.825891],[23.976276,49.825342],[23.976415,49.825401],[23.975846,49.825954],[23.975699,49.825891]]]}},{"type":"Feature","properties":{},"geometry":{"type":"Polygon","coordinates":[[[23.974849,49.826666],[23.975574,49.82597],[23.975698,49.826028],[23.974989,49.826725],[23.974849,49.826666]]]}},{"type":"Feature","properties":{},"geometry":{"type":"Polygon","coordinates":[[[23.974014,49.827461],[23.974749,49.826761],[23.974879,49.826817],[23.974154,49.827519],[23.974014,49.827461]]]}},{"type":"Feature","properties":{},"geometry":{"type":"Polygon","coordinates":[[[23.972343,49.827053],[23.972444,49.826958],[23.973297,49.827305],[23.973205,49.827402],[23.972343,49.827053]]]}},{"type":"Feature","properties":{},"geometry":{"type":"Polygon","coordinates":[[[23.97338,49.827225],[23.973799,49.826819],[23.973946,49.826886],[23.973526,49.827291],[23.97338,49.827225]]]}},{"type":"Feature","properties":{},"geometry":{"type":"Polygon","coordinates":[[[23.972409,49.826792],[23.972826,49.826392],[23.97296,49.826447],[23.972552,49.826854],[23.972409,49.826792]]]}},{"type":"Feature","properties":{},"geometry":{"type":"Polygon","coordinates":[[[23.972101,49.826784],[23.972032,49.82687],[23.971947,49.82687],[23.971865,49.826853],[23.971799,49.826817],[23.971755,49.826772],[23.97173,49.826713],[23.971762,49.826645],[23.972293,49.826083],[23.972362,49.826077],[23.972714,49.826201],[23.97262,49.826318],[23.972406,49.826257],[23.972129,49.826545],[23.972148,49.826553],[23.972095,49.826606],[23.972076,49.826598],[23.971956,49.826717],[23.972101,49.826784]]]}},{"type":"Feature","properties":{},"geometry":{"type":"Polygon","coordinates":[[[23.972707,49.825515],[23.97288,49.825581],[23.972847,49.825616],[23.972893,49.825633],[23.972857,49.825663],[23.972929,49.825691],[23.972955,49.825675],[23.972991,49.825686],[23.97305,49.825631],[23.973187,49.825685],[23.9732,49.825705],[23.973089,49.825808],[23.973014,49.825814],[23.972991,49.825841],[23.972612,49.825688],[23.97263,49.825675],[23.972604,49.825615],[23.972707,49.825515]]]}},{"type":"Feature","properties":{},"geometry":{"type":"Polygon","coordinates":[[[23.972872,49.825806],[23.972983,49.825851],[23.97296,49.825881],[23.973017,49.825904],[23.972981,49.825934],[23.97295,49.825921],[23.972839,49.826037],[23.972865,49.826044],[23.972829,49.826076],[23.972651,49.826009],[23.972687,49.825977],[23.972671,49.825972],[23.972713,49.825937],[23.972697,49.825931],[23.972736,49.825891],[23.972772,49.825886],[23.972842,49.825821],[23.97286,49.825828],[23.972872,49.825806]]]}},{"type":"Feature","properties":{},"geometry":{"type":"Polygon","coordinates":[[[23.972001,49.825415],[23.972186,49.825478],[23.972101,49.825575],[23.972473,49.825731],[23.972356,49.825849],[23.97199,49.825698],[23.972023,49.825662],[23.971816,49.825584],[23.971939,49.825443],[23.972001,49.825415]]]}},{"type":"Feature","properties":{},"geometry":{"type":"Polygon","coordinates":[[[23.971147,49.824564],[23.971163,49.824544],[23.97125,49.824575],[23.971229,49.824593],[23.971147,49.824564]]]}},{"type":"Feature","properties":{},"geometry":{"type":"Polygon","coordinates":[[[23.971357,49.824705],[23.971415,49.824652],[23.971671,49.824752],[23.971613,49.824805],[23.971357,49.824705]]]}},{"type":"Feature","properties":{},"geometry":{"type":"Polygon","coordinates":[[[23.971568,49.824881],[23.971618,49.824841],[23.971688,49.824868],[23.971638,49.82491],[23.971568,49.824881]]]}},{"type":"Feature","properties":{},"geometry":{"type":"Polygon","coordinates":[[[23.971653,49.824935],[23.971717,49.824876],[23.971763,49.824893],[23.97175,49.824905],[23.972196,49.82508],[23.971987,49.8253],[23.971542,49.825122],[23.97168,49.824997],[23.971744,49.825017],[23.971684,49.825081],[23.971978,49.825191],[23.972038,49.825121],[23.971966,49.825097],[23.972001,49.825068],[23.971653,49.824935]]]}},{"type":"Feature","properties":{},"geometry":{"type":"Polygon","coordinates":[[[23.971411,49.825006],[23.971479,49.824937],[23.971542,49.824957],[23.971474,49.825029],[23.971411,49.825006]]]}},{"type":"Feature","properties":{},"geometry":{"type":"Polygon","coordinates":[[[23.971286,49.824891],[23.971456,49.824959],[23.971367,49.825053],[23.971191,49.82499],[23.97122,49.82496],[23.971189,49.824947],[23.971234,49.8249],[23.971257,49.824913],[23.971286,49.824891]]]}},{"type":"Feature","properties":{},"geometry":{"type":"Polygon","coordinates":[[[23.970716,49.825504],[23.970853,49.825554],[23.970557,49.825853],[23.97092,49.825989],[23.970945,49.825958],[23.971082,49.826007],[23.971053,49.826042],[23.97139,49.826179],[23.971422,49.826138],[23.97139,49.826126],[23.971661,49.825872],[23.971801,49.825941],[23.971188,49.826581],[23.971064,49.826521],[23.971312,49.826249],[23.970999,49.826127],[23.970809,49.826338],[23.970616,49.826256],[23.970778,49.826085],[23.970816,49.826096],[23.97084,49.826065],[23.970499,49.825936],[23.970264,49.826162],[23.970143,49.826107],[23.970716,49.825504]]]}},{"type":"Feature","properties":{},"geometry":{"type":"Polygon","coordinates":[[[23.973569,49.823112],[23.973655,49.823024],[23.973718,49.823047],[23.97363,49.823137],[23.97363,49.823137],[23.973627,49.823138],[23.973569,49.823112]]]}},{"type":"Feature","properties":{},"geometry":{"type":"Polygon","coordinates":[[[23.973271,49.823452],[23.973293,49.823422],[23.973376,49.823454],[23.973346,49.823486],[23.973271,49.823452]]]}},{"type":"Feature","properties":{},"geometry":{"type":"Polygon","coordinates":[[[23.97429,49.823299],[23.974406,49.823354],[23.973966,49.823747],[23.973829,49.823687],[23.97429,49.823299]]]}},{"type":"Feature","properties":{},"geometry":{"type":"Polygon","coordinates":[[[23.97507,49.825614],[23.975217,49.825676],[23.974808,49.826076],[23.974654,49.826011],[23.97507,49.825614]]]}},{"type":"Feature","properties":{},"geometry":{"type":"Polygon","coordinates":[[[23.974125,49.82653],[23.974534,49.826128],[23.974681,49.826188],[23.974267,49.826588],[23.974125,49.82653]]]}},{"type":"Feature","properties":{},"geometry":{"type":"Polygon","coordinates":[[[23.973906,49.826752],[23.973062,49.826364],[23.973166,49.826271],[23.974032,49.826634],[23.973906,49.826752]]]}},{"type":"Feature","properties":{},"geometry":{"type":"Polygon","coordinates":[[[23.974077,49.826718],[23.974127,49.826676],[23.974186,49.826699],[23.974132,49.826743],[23.974077,49.826718]]]}},{"type":"Feature","properties":{},"geometry":{"type":"Polygon","coordinates":[[[23.973105,49.826632],[23.973137,49.826602],[23.973216,49.826632],[23.973186,49.826665],[23.973105,49.826632]]]}},{"type":"Feature","properties":{},"geometry":{"type":"Polygon","coordinates":[[[23.973156,49.826074],[23.974002,49.825262],[23.974155,49.825333],[23.973309,49.826142],[23.973156,49.826074]]]}},{"type":"Feature","properties":{},"geometry":{"type":"Polygon","coordinates":[[[23.972958,49.8254],[23.973078,49.82529],[23.97316,49.825322],[23.973113,49.825367],[23.973136,49.825376],[23.973116,49.825402],[23.97316,49.825423],[23.973119,49.825467],[23.972958,49.8254]]]}},{"type":"Feature","properties":{},"geometry":{"type":"Polygon","coordinates":[[[23.972918,49.825111],[23.972965,49.825053],[23.97303,49.825076],[23.973059,49.825054],[23.973237,49.825128],[23.973141,49.825229],[23.973068,49.825199],[23.973088,49.82518],[23.972918,49.825111]]]}},{"type":"Feature","properties":{},"geometry":{"type":"Polygon","coordinates":[[[23.972153,49.825322],[23.972285,49.825184],[23.972477,49.825253],[23.972337,49.825399],[23.972153,49.825322]]]}},{"type":"Feature","properties":{},"geometry":{"type":"Polygon","coordinates":[[[23.972355,49.825133],[23.972454,49.825036],[23.972651,49.82512],[23.972612,49.825161],[23.97257,49.825143],[23.972518,49.825195],[23.972355,49.825133]]]}},{"type":"Feature","properties":{},"geometry":{"type":"Polygon","coordinates":[[[23.974115,49.826086],[23.974164,49.826045],[23.974244,49.826081],[23.974198,49.826124],[23.974115,49.826086]]]}}]}